IRIDIUM 166             
1 43570U 18061B   24073.30553791  .00000146  00000+0  45088-4 0  9993
2 43570  86.3970  41.8644 0002479  91.8148 268.3331 14.34218369295029
IRIDIUM 158             
1 43571U 18061C   24074.45989007  .00000166  00000+0  52367-4 0  9994
2 43571  86.3973  41.3910 0002431  83.9236 276.2236 14.34217111295163
IRIDIUM 165             
1 43572U 18061D   24073.92711155  .00000161  00000+0  50279-4 0  9998
2 43572  86.3975  41.6445 0002475  84.2051 275.9427 14.34217440295106
IRIDIUM 155             
1 43573U 18061E   24074.44719115  .00000249  00000+0  81823-4 0  9997
2 43573  86.3970  41.3368 0002249  91.7794 268.3660 14.34214828295156
IRIDIUM 154             
1 43574U 18061F   24074.42817620  .00000161  00000+0  50503-4 0  9990
2 43574  86.3979  41.4378 0002133  81.5335 278.6103 14.34217025295190
IRIDIUM 163             
1 43575U 18061G   24074.19984520  .00000048  00000+0  99683-5 0  9996
2 43575  86.3971  41.4745 0002096  86.1125 274.0310 14.34217196295130
IRIDIUM 156             
1 43576U 18061H   24073.96516548  .00000163  00000+0  51066-4 0  9992
2 43576  86.3972  41.5786 0002492  87.9038 272.2443 14.34216762295089
IRIDIUM 164             
1 43577U 18061J   24074.43451839  .00000118  00000+0  35124-4 0  9994
2 43577  86.3974  41.4101 0002377  81.9212 278.2253 14.34217874295206
